OSCAR 7 (AO-7)          
1 07530U 74089B   26155.29739885 -.00000046  00000+0  32849-5 0  9994
2 07530 101.9902 168.4095 0012424 154.1272 275.7065 12.53697884358907
PHASE 3B (AO-10)        
1 14129U 83058B   26153.31656221  .00000070  00000+0  00000+0 0  9999
2 14129  25.9022 222.0290 6015956 111.5768 320.3605  2.05871181295184
UOSAT 2 (UO-11)         
1 14781U 84021B   26155.13278985  .00001434  00000+0  15166-3 0  9991
2 14781  97.8051 120.8543 0006503 218.7082 141.3671 14.90749915255181
LUSAT (LO-19)           
1 20442U 90005G   26155.27473537  .00000150  00000+0  70342-4 0  9998
2 20442  98.8853 176.7242 0010549 241.5531 118.4591 14.34119202900548
EYESAT A (AO-27)        
1 22825U 93061C   26155.13386559  .00000145  00000+0  72223-4 0  9996
2 22825  98.6882 222.5517 0009249 133.7828 226.4121 14.30938744705139
ITAMSAT (IO-26)         
1 22826U 93061D   26155.11717010  .00000130  00000+0  66015-4 0  9991
2 22826  98.6830 222.4511 0009982 119.1437 241.0746 14.31365091705444
RADIO ROSTO (RS15)      
1 23439U 94085A   26155.16737505 -.00000049  00000+0 -18936-3 0  9994
2 23439  64.8178 324.2733 0155549   6.2800 354.0027 11.27583587294436
JAS-2 (FO-29)           
1 24278U 96046B   26155.07670467 -.00000029  00000+0  38850-5 0  9994
2 24278  98.5251   5.7442 0350656 130.3680 232.8639 13.53273623471395
TECHSAT 1B (GO-32)      
1 25397U 98043D   26154.57772251  .00000069  00000+0  49972-4 0  9993
2 25397  99.0064 146.9934 0000319 213.6137 146.5021 14.24425649449397
ISS (ZARYA)             
1 25544U 98067A   26154.96745432  .00008451  00000+0  15807-3 0  9999
2 25544  51.6330   5.5404 0007081 130.0270 230.1341 15.49590346569704
PCSAT (NO-44)           
1 26931U 01043C   26154.60928777  .00000163  00000+0  91734-4 0  9990
2 26931  67.0512 279.3895 0006115 263.9670  96.0735 14.31950876288500
SAUDISAT 1C (SO-50)     
1 27607U 02058C   26154.26409835  .00001126  00000+0  14986-3 0  9992
2 27607  64.5505 172.0623 0075519 265.0164  94.2317 14.83015002262393
CUTE-1 (CO-55)          
1 27844U 03031E   26154.54951729  .00000336  00000+0  16425-3 0  9994
2 27844  98.6736 163.2800 0008690 219.4250 140.6297 14.24327019189732
CUBESAT XI-IV (CO-57)   
1 27848U 03031J   26152.00092913  .00000288  00000+0  14576-3 0  9999
2 27848  98.6768 160.4891 0008288 248.3946 111.6350 14.23611465189071
MOZHAETS 4 (RS22)       
1 27939U 03042A   26155.32129924  .00001083  00000+0  17509-3 0  9996
2 27939  98.3465 339.3166 0010398 315.2695 168.2196 14.73443963213654
CUBESAT XI-V            
1 28895U 05043F   26152.36703129  .00001677  00000+0  27161-3 0  9991
2 28895  98.2967 307.6587 0012837 254.1655 105.8136 14.72584583 99425
CUTE-1.7+APD II (CO-65) 
1 32785U 08021C   26155.25527768  .00005554  00000+0  35198-3 0  9994
2 32785  97.8272 136.4068 0010680  76.5592 283.6825 15.09322060983247
SEEDS II (CO-66)        
1 32791U 08021J   26154.55442507  .00020146  00000+0  64842-3 0  9992
2 32791  97.7515 151.8069 0002991  42.0128 318.1342 15.32257900985206
YUBILEINY (RS30)        
1 32953U 08025A   26155.30245307 -.00000016  00000+0 -18858-3 0  9991
2 32953  82.5045   3.4568 0019416 342.7233  17.3184 12.43178677818095
KKS-1 (KISEKI)          
1 33499U 09002H   26155.23548792  .00001730  00000+0  21926-3 0  9991
2 33499  98.1193  77.4726 0007409 343.2117  16.8850 14.83089575934278
SWISSCUBE               
1 35932U 09051B   26154.27980436  .00001220  00000+0  25059-3 0  9992
2 35932  98.4045  61.9256 0005398 254.9932 105.0671 14.62453382887126
BEESAT-1                
1 35933U 09051C   26154.62429402  .00000980  00000+0  20663-3 0  9991
2 35933  98.3973  61.9398 0003909 272.0464  88.0289 14.61697093887202
ITUPSAT1                
1 35935U 09051E   26154.26074865  .00000935  00000+0  20304-3 0  9994
2 35935  98.4058  60.7773 0006171 286.3801  73.6720 14.60418625886705
XIWANG-1 (HOPE-1)       
1 36122U 09072B   26155.24803382 -.00000195  00000+0 -39491-3 0  9996
2 36122 100.4026 109.2875 0006789 264.4410  95.5929 13.16437525791308
O/OREOS (USA 219)       
1 37224U 10062C   26155.00288419  .00002646  00000+0  25562-3 0  9998
2 37224  71.9701 110.2018 0012350  92.0323 268.2262 14.93684023114675
JUGNU                   
1 37839U 11058B   26152.07859182  .00000456  00000+0  98509-4 0  9990
2 37839  19.9618  46.2876 0018499 258.1927 242.1590 14.13771859756742
SRMSAT                  
1 37841U 11058D   26155.28992141  .00000393  00000+0  69540-4 0  9995
2 37841  19.9702 137.5332 0011913  62.8275  26.7062 14.11572942755996
STRAND-1                
1 39090U 13009E   26155.03670315  .00000293  00000+0  11292-3 0  9999
2 39090  98.3918 335.5952 0007387 270.6143  89.4198 14.37155097695170
ZACUBE-1 (TSHEPISOSAT)  
1 39417U 13066B   26154.94254392  .00004510  00000+0  35148-3 0  9999
2 39417  97.8107 117.2078 0039903 294.5657  65.1411 15.01095965678747
GOMX-1                  
1 39430U 13066Q   26155.31605133  .00002236  00000+0  33944-3 0  9994
2 39430  97.6486 356.5910 0129981 118.4120 243.0259 14.69407998668021
